{
  "type": "FeatureCollection",
  "features": [
    {
      "type": "Feature",
      "properties": {
        "norad_id": 35435,
        "name": "COSMOS 2251 DEB",
        "group": "cosmos-2251-debris",
        "lat": -72.40720984873616,
        "lon": -40.45975439061184,
        "alt_km": 639.7587173804868,
        "timestamp": "2025-12-27T14:26:30.917475+00:00",
        "meta_object_name": "COSMOS 2251 DEB",
        "meta_object_id": "1993-036AKD",
        "meta_epoch": "2025-12-26T23:27:11.820960",
        "meta_mean_motion": 14.78894753,
        "meta_eccentricity": 0.0006385,
        "meta_inclination": 74.0104,
        "meta_ra_of_asc_node": 76.0379,
        "meta_arg_of_pericenter": 173.0542,
        "meta_mean_anomaly": 5.8137,
        "meta_ephemeris_type": 0,
        "meta_classification_type": "U",
        "meta_norad_cat_id": 35435,
        "meta_element_set_no": 999,
        "meta_rev_at_epoch": 87749,
        "meta_bstar": 0.0023962,
        "meta_mean_motion_dot": 0.00017681,
        "meta_mean_motion_ddot": 0,
        "tle_line1": "1 35435U 93036AKD 25360.97722015  .00017681  00000+0  23962-2 0  9996",
        "tle_line2": "2 35435  74.0104  76.0379 0006385 173.0542   5.8137 14.78894753877499"
      },
      "geometry": {
        "type": "Point",
        "coordinates": [
          -40.45975439061184,
          -72.40720984873616
        ]
      }
    },
    {
      "type": "Feature",
      "properties": {
        "norad_id": 35439,
        "name": "COSMOS 2251 DEB",
        "group": "cosmos-2251-debris",
        "lat": -69.46417980092785,
        "lon": 59.37260885783943,
        "alt_km": 749.8510494345601,
        "timestamp": "2025-12-27T14:26:30.917486+00:00",
        "meta_object_name": "COSMOS 2251 DEB",
        "meta_object_id": "1993-036AKH",
        "meta_epoch": "2025-12-23T01:03:41.280192",
        "meta_mean_motion": 13.9285581,
        "meta_eccentricity": 0.02428241,
        "meta_inclination": 74.0195,
        "meta_ra_of_asc_node": 117.083,
        "meta_arg_of_pericenter": 284.1415,
        "meta_mean_anomaly": 194.5054,
        "meta_ephemeris_type": 0,
        "meta_classification_type": "U",
        "meta_norad_cat_id": 35439,
        "meta_element_set_no": 999,
        "meta_rev_at_epoch": 84104,
        "meta_bstar": 0.0017241175,
        "meta_mean_motion_dot": 2.822e-05,
        "meta_mean_motion_ddot": 0,
        "tle_line1": "1 35439U 93036AKH 25357.04422778  .00002822  00000+0  17241-2 0  9991",
        "tle_line2": "2 35439  74.0195 117.0830 0242824 284.1415 194.5054 13.92855810841046"
      },
      "geometry": {
        "type": "Point",
        "coordinates": [
          59.37260885783943,
          -69.46417980092785
        ]
      }
    },
    {
      "type": "Feature",
      "properties": {
        "norad_id": 35440,
        "name": "COSMOS 2251 DEB",
        "group": "cosmos-2251-debris",
        "lat": 72.55064731054516,
        "lon": -66.93522789972121,
        "alt_km": 695.1027875456557,
        "timestamp": "2025-12-27T14:26:30.917507+00:00",
        "meta_object_name": "COSMOS 2251 DEB",
        "meta_object_id": "1993-036AKJ",
        "meta_epoch": "2025-12-26T18:23:12.577920",
        "meta_mean_motion": 14.68880291,
        "meta_eccentricity": 0.00699138,
        "meta_inclination": 74.0164,
        "meta_ra_of_asc_node": 180.4489,
        "meta_arg_of_pericenter": 318.4907,
        "meta_mean_anomaly": 41.0964,
        "meta_ephemeris_type": 0,
        "meta_classification_type": "U",
        "meta_norad_cat_id": 35440,
        "meta_element_set_no": 999,
        "meta_rev_at_epoch": 68971,
        "meta_bstar": 0.00042501367,
        "meta_mean_motion_dot": 2.545e-05,
        "meta_mean_motion_ddot": 0,
        "tle_line1": "1 35440U 93036AKJ 25360.76611780  .00002545  00000+0  42501-3 0  9999",
        "tle_line2": "2 35440  74.0164 180.4489 0069913 318.4907  41.0964 14.68880291689716"
      },
      "geometry": {
        "type": "Point",
        "coordinates": [
          -66.93522789972121,
          72.55064731054516
        ]
      }
    },
    {
      "type": "Feature",
      "properties": {
        "norad_id": 35441,
        "name": "COSMOS 2251 DEB",
        "group": "cosmos-2251-debris",
        "lat": 71.7456660532614,
        "lon": -30.639874695561637,
        "alt_km": 672.4703959333146,
        "timestamp": "2025-12-27T14:26:30.917518+00:00",
        "meta_object_name": "COSMOS 2251 DEB",
        "meta_object_id": "1993-036AKK",
        "meta_epoch": "2025-12-24T12:12:34.900128",
        "meta_mean_motion": 14.62759756,
        "meta_eccentricity": 0.0036013,
        "meta_inclination": 74.1345,
        "meta_ra_of_asc_node": 275.6818,
        "meta_arg_of_pericenter": 167.8993,
        "meta_mean_anomaly": 192.3049,
        "meta_ephemeris_type": 0,
        "meta_classification_type": "U",
        "meta_norad_cat_id": 35441,
        "meta_element_set_no": 999,
        "meta_rev_at_epoch": 87602,
        "meta_bstar": 0.0014950847,
        "meta_mean_motion_dot": 7.673e-05,
        "meta_mean_motion_ddot": 0,
        "tle_line1": "1 35441U 93036AKK 25358.50873727  .00007673  00000+0  14951-2 0  9994",
        "tle_line2": "2 35441  74.1345 275.6818 0036013 167.8993 192.3049 14.62759756876029"
      },
      "geometry": {
        "type": "Point",
        "coordinates": [
          -30.639874695561637,
          71.7456660532614
        ]
      }
    },
    {
      "type": "Feature",
      "properties": {
        "norad_id": 35442,
        "name": "COSMOS 2251 DEB",
        "group": "cosmos-2251-debris",
        "lat": 55.76841060706585,
        "lon": 94.52454097132265,
        "alt_km": 605.505331238618,
        "timestamp": "2025-12-27T14:26:30.917528+00:00",
        "meta_object_name": "COSMOS 2251 DEB",
        "meta_object_id": "1993-036AKL",
        "meta_epoch": "2025-12-27T04:28:28.422912",
        "meta_mean_motion": 14.84932023,
        "meta_eccentricity": 0.00042053,
        "meta_inclination": 74.0274,
        "meta_ra_of_asc_node": 70.454,
        "meta_arg_of_pericenter": 31.5697,
        "meta_mean_anomaly": 328.5734,
        "meta_ephemeris_type": 0,
        "meta_classification_type": "U",
        "meta_norad_cat_id": 35442,
        "meta_element_set_no": 999,
        "meta_rev_at_epoch": 87567,
        "meta_bstar": 0.0023136177,
        "meta_mean_motion_dot": 0.00019731,
        "meta_mean_motion_ddot": 0,
        "tle_line1": "1 35442U 93036AKL 25361.18644008  .00019731  00000+0  23136-2 0  9994",
        "tle_line2": "2 35442  74.0274  70.4540 0004205  31.5697 328.5734 14.84932023875677"
      },
      "geometry": {
        "type": "Point",
        "coordinates": [
          94.52454097132265,
          55.76841060706585
        ]
      }
    },
    {
      "type": "Feature",
      "properties": {
        "norad_id": 35443,
        "name": "COSMOS 2251 DEB",
        "group": "cosmos-2251-debris",
        "lat": 45.005099206520754,
        "lon": -41.88814871939464,
        "alt_km": 526.0112879686567,
        "timestamp": "2025-12-27T14:26:30.917539+00:00",
        "meta_object_name": "COSMOS 2251 DEB",
        "meta_object_id": "1993-036AKM",
        "meta_epoch": "2025-12-27T03:00:49.058784",
        "meta_mean_motion": 14.98028112,
        "meta_eccentricity": 0.00723824,
        "meta_inclination": 73.9892,
        "meta_ra_of_asc_node": 302.3889,
        "meta_arg_of_pericenter": 80.8461,
        "meta_mean_anomaly": 280.0904,
        "meta_ephemeris_type": 0,
        "meta_classification_type": "U",
        "meta_norad_cat_id": 35443,
        "meta_element_set_no": 999,
        "meta_rev_at_epoch": 87093,
        "meta_bstar": 0.0051440881,
        "meta_mean_motion_dot": 0.00064698,
        "meta_mean_motion_ddot": 0,
        "tle_line1": "1 35443U 93036AKM 25361.12556781  .00064698  00000+0  51441-2 0  9991",
        "tle_line2": "2 35443  73.9892 302.3889 0072382  80.8461 280.0904 14.98028112870937"
      },
      "geometry": {
        "type": "Point",
        "coordinates": [
          -41.88814871939464,
          45.005099206520754
        ]
      }
    },
    {
      "type": "Feature",
      "properties": {
        "norad_id": 35445,
        "name": "COSMOS 2251 DEB",
        "group": "cosmos-2251-debris",
        "lat": -27.48409562423368,
        "lon": 100.23348629349823,
        "alt_km": 784.6287172725451,
        "timestamp": "2025-12-27T14:26:30.917549+00:00",
        "meta_object_name": "COSMOS 2251 DEB",
        "meta_object_id": "1993-036AKP",
        "meta_epoch": "2025-12-24T19:40:46.420608",
        "meta_mean_motion": 14.59408318,
        "meta_eccentricity": 0.01439573,
        "meta_inclination": 74.0386,
        "meta_ra_of_asc_node": 276.9734,
        "meta_arg_of_pericenter": 1.0045,
        "meta_mean_anomaly": 359.138,
        "meta_ephemeris_type": 0,
        "meta_classification_type": "U",
        "meta_norad_cat_id": 35445,
        "meta_element_set_no": 999,
        "meta_rev_at_epoch": 87505,
        "meta_bstar": 0.0021997687,
        "meta_mean_motion_dot": 0.00012035,
        "meta_mean_motion_ddot": 0,
        "tle_line1": "1 35445U 93036AKP 25358.81998172  .00012035  00000+0  21998-2 0  9991",
        "tle_line2": "2 35445  74.0386 276.9734 0143957   1.0045 359.1380 14.59408318875055"
      },
      "geometry": {
        "type": "Point",
        "coordinates": [
          100.23348629349823,
          -27.48409562423368
        ]
      }
    }
  ]
}